1 54277U 22151U   24128.48485423  .00000403  00000+0  21626-3 0  9997
2 54277  98.8741 143.9155 0047316 239.8311 119.8172 14.18076524 76303
1 54277U 22151U   24128.90820049  .00000373  00000+0  20175-3 0  9995
2 54277  98.8740 144.3388 0047334 238.5937 121.0604 14.18076776 76365
1 54277U 22151U   24129.54321992  .00000424  00000+0  22610-3 0  9992
2 54277  98.8739 144.9736 0047356 236.7396 122.9237 14.18077637 76458
1 54277U 22151U   24129.75489301  .00000424  00000+0  22635-3 0  9991
2 54277  98.8739 145.1853 0047363 236.1248 123.5417 14.18077816 76488
1 54277U 22151U   24129.96656595  .00000378  00000+0  20396-3 0  9995
2 54277  98.8739 145.3969 0047372 235.5085 124.1611 14.18077820 76512
1 54277U 22151U   24131.02493092  .00000591  00000+0  30693-3 0  9994
2 54277  98.8738 146.4550 0047409 232.4204 127.2661 14.18079937 76665
1 54277U 22151U   24131.80106439  .00000752  00000+0  38429-3 0  9990
2 54277  98.8737 147.2310 0047438 230.1582 129.5415 14.18081663 76776
1 54277U 22151U   24132.29496843  .00001188  00000+0  59452-3 0  9998
2 54277  98.8737 147.7248 0047471 228.7116 130.9967 14.18084181 76848
1 54277U 22151U   24132.92998083  .00001267  00000+0  63243-3 0  9992
2 54277  98.8735 148.3596 0047477 226.8737 132.8463 14.18087119 76939
1 54277U 22151U   24133.49443998  .00001126  00000+0  56462-3 0  9994
2 54277  98.8735 148.9240 0047506 225.2288 134.5018 14.18087365 77016
1 54277U 22151U   24133.56499722  .00001126  00000+0  56471-3 0  9998
2 54277  98.8735 148.9945 0047511 225.0211 134.7109 14.18087530 77026
1 54277U 22151U   24133.77666880  .00001155  00000+0  57850-3 0  9996
2 54277  98.8734 149.2062 0047519 224.4175 135.3185 14.18088197 77053
1 54277U 22151U   24134.48224065  .00001011  00000+0  50906-3 0  9996
2 54277  98.8734 149.9116 0047566 222.3630 137.3869 14.18089170 77159
1 54277U 22151U   24134.76446930  .00000956  00000+0  48277-3 0  9999
2 54277  98.8733 150.1937 0047579 221.5475 138.2080 14.18089532 77196
1 54277U 22151U   24135.32892636  .00000930  00000+0  47013-3 0  9999
2 54277  98.8733 150.7580 0047591 219.9201 139.8471 14.18090714 77272
1 54277U 22151U   24135.75226862  .00000932  00000+0  47116-3 0  9994
2 54277  98.8733 151.1813 0047612 218.6918 141.0843 14.18091801 77334
1 54277U 22151U   24136.03449653  .00001022  00000+0  51429-3 0  9994
2 54277  98.8732 151.4634 0047622 217.8786 141.9035 14.18093031 77375
1 54277U 22151U   24136.59895274  .00000900  00000+0  45569-3 0  9991
2 54277  98.8732 152.0277 0047646 216.2390 143.5554 14.18093671 77458
1 54277U 22151U   24137.30452202  .00000886  00000+0  44897-3 0  9997
2 54277  98.8731 152.7331 0047671 214.1920 145.6183 14.18095256 77552
1 54277U 22151U   24137.79842001  .00000838  00000+0  42541-3 0  9991
2 54277  98.8730 153.2269 0047707 212.7567 147.0648 14.18096178 77622
1 54277U 22151U   24138.50398833  .00000804  00000+0  40915-3 0  9996
2 54277  98.8729 153.9322 0047748 210.7101 149.1278 14.18097528 77727
1 54277U 22151U   24138.78621557  .00000786  00000+0  40030-3 0  9995
2 54277  98.8729 154.2143 0047779 209.8896 149.9549 14.18097954 77762
1 54277U 22151U   24139.28011238  .00000893  00000+0  45190-3 0  9991
2 54277  98.8728 154.7080 0047805 208.4668 151.3894 14.18099624 77832
1 54277U 22151U   24139.77400931  .00000858  00000+0  43523-3 0  9996
2 54277  98.8726 155.2017 0047842 207.0493 152.8188 14.18100379 77908
1 54277U 22151U   24139.98567921  .00000873  00000+0  44258-3 0  9995
2 54277  98.8725 155.4132 0047859 206.4431 153.4301 14.18100917 77935
1 54277U 22151U   24140.97347204  .00000901  00000+0  45567-3 0  9992
2 54277  98.8726 156.4008 0047905 203.5890 156.3088 14.18102947 78073
1 54277U 22151U   24141.53792460  .00000831  00000+0  42211-3 0  9998
2 54277  98.8726 156.9651 0047939 201.9591 157.9530 14.18103663 78153
1 54277U 22151U   24142.03182033  .00000809  00000+0  41132-3 0  9999
2 54277  98.8726 157.4588 0047963 200.5368 159.3879 14.18104454 78221
1 54277U 22151U   24143.51350592  .00000677  00000+0  34769-3 0  9991
2 54277  98.8726 158.9401 0048049 196.2594 163.7042 14.18106443 78433
1 54277U 22151U   24144.57185131  .00000627  00000+0  32365-3 0  9998
2 54277  98.8725 159.9981 0048107 193.2261 166.7656 14.18108024 78586
1 54277U 22151U   24144.85407651  .00000647  00000+0  33312-3 0  9998
2 54277  98.8725 160.2802 0048125 192.4160 167.5833 14.18108603 78626
1 54277U 22151U   24145.55963914  .00000603  00000+0  31226-3 0  9999
2 54277  98.8725 160.9855 0048183 190.3934 169.6249 14.18109607 78721
1 54277U 22151U   24145.84186415  .00000581  00000+0  30142-3 0  9995
2 54277  98.8724 161.2677 0048196 189.5849 170.4411 14.18109911 78768
1 54277U 22151U   24146.54742644  .00000527  00000+0  27537-3 0  9999
2 54277  98.8724 161.9730 0048223 187.5657 172.4796 14.18110686 78861
1 54277U 22151U   24147.04131977  .00000524  00000+0  27378-3 0  9996
2 54277  98.8724 162.4667 0048248 186.1554 173.9034 14.18111357 78939
1 54277U 22151U   24147.95855001  .00000459  00000+0  24284-3 0  9997
2 54277  98.8723 163.3837 0048298 183.5317 176.5524 14.18112145 79064
1 54277U 22151U   24148.52299921  .00000398  00000+0  21320-3 0  9994
2 54277  98.8723 163.9480 0048328 181.9108 178.1890 14.18112446 79145
1 54277U 22151U   24148.59355535  .00000395  00000+0  21194-3 0  9991
2 54277  98.8723 164.0185 0048338 181.7120 178.3897 14.18112499 79150
1 54277U 22151U   24148.94633583  .00000391  00000+0  21002-3 0  9996
2 54277  98.8722 164.3711 0048396 180.7078 179.4036 14.18112875 79203
1 54277U 22151U   24149.58134063  .00000378  00000+0  20364-3 0  9991
2 54277  98.8722 165.0058 0048430 178.8906 181.2385 14.18113500 79295
1 54277U 22151U   24149.93412092  .00000368  00000+0  19892-3 0  9994
2 54277  98.8722 165.3584 0048471 177.8974 182.2413 14.18113818 79342
1 54277U 22151U   24150.00467695  .00000367  00000+0  19836-3 0  9990
2 54277  98.8722 165.4289 0048493 177.7023 182.4383 14.18113898 79350
1 54277U 22151U   24150.00467699  .00000400  00000+0  21435-3 0  9990
2 54277  98.8722 165.4289 0048492 177.7024 182.4382 14.18114058 79358
1 54277U 22151U   24150.99246131  .00000448  00000+0  23706-3 0  9999
2 54277  98.8721 166.4164 0048566 174.8972 185.2708 14.18115355 79491
1 54277U 22151U   24151.55690930  .00000493  00000+0  25892-3 0  9990
2 54277  98.8721 166.9807 0048589 173.2856 186.8981 14.18116158 79570
1 54277U 22151U   24152.26246894  .00000469  00000+0  24755-3 0  9995
2 54277  98.8720 167.6860 0048595 171.2680 188.9352 14.18116711 79677
1 54277U 22151U   24152.54469239  .00000515  00000+0  26961-3 0  9999
2 54277  98.8720 167.9681 0048630 170.4722 189.7386 14.18117326 79713
1 54277U 22151U   24152.61524829  .00000515  00000+0  26971-3 0  9995
2 54277  98.8720 168.0387 0048643 170.2769 189.9358 14.18117396 79720
1 54277U 22151U   24153.53247585  .00000401  00000+0  21444-3 0  9992
2 54277  98.8720 168.9556 0048677 167.6589 192.5790 14.18117395 79857
1 54277U 22151U   24153.95581122  .00000404  00000+0  21596-3 0  9997
2 54277  98.8719 169.3788 0048677 166.4492 193.8002 14.18117750 79919
1 54277U 22151U   24154.87303737  .00000439  00000+0  23264-3 0  9995
2 54277  98.8718 170.2957 0048706 163.8336 196.4406 14.18118703 80040
1 54277U 22151U   24155.29637228  .00000513  00000+0  26861-3 0  9996
2 54277  98.8719 170.7189 0048725 162.6274 197.6582 14.18119476 80105
1 54277U 22151U   24155.86081844  .00000534  00000+0  27856-3 0  9994
2 54277  98.8717 171.2832 0048771 161.0459 199.2545 14.18120145 80183
1 54277U 22151U   24156.28415277  .00000573  00000+0  29746-3 0  9995
2 54277  98.8717 171.7064 0048797 159.8488 200.4628 14.18120844 80240
1 54277U 22151U   24156.77804284  .00000577  00000+0  29932-3 0  9990
2 54277  98.8717 172.2001 0048829 158.4572 201.8672 14.18121365 80313
1 54277U 22151U   24157.27193264  .00000515  00000+0  26952-3 0  9996
2 54277  98.8717 172.6938 0048858 157.0634 203.2738 14.18121588 80385
1 54277U 22151U   24157.83637773  .00000536  00000+0  27942-3 0  9999
2 54277  98.8717 173.2580 0048887 155.4724 204.8792 14.18122358 80461
1 54277U 22151U   24158.33026696  .00000549  00000+0  28566-3 0  9998
2 54277  98.8717 173.7517 0048913 154.0770 206.2870 14.18123010 80539
1 54277U 22151U   24159.03582266  .00000566  00000+0  29386-3 0  9996
2 54277  98.8716 174.4570 0048949 152.0864 208.2953 14.18123914 80634
1 54277U 22151U   24159.95304398  .00000657  00000+0  33768-3 0  9995
2 54277  98.8715 175.3738 0048999 149.4929 210.9113 14.18125556 80762
1 54277U 22151U   24160.30582135  .00000654  00000+0  33610-3 0  9996
2 54277  98.8715 175.7264 0049018 148.4912 211.9214 14.18125942 80812
1 54277U 22151U   24161.50526313  .00000678  00000+0  34782-3 0  9992
2 54277  98.8714 176.9253 0049091 145.1210 215.3199 14.18127607 80986
1 54277U 22151U   24161.92859489  .00000687  00000+0  35223-3 0  9992
2 54277  98.8714 177.3485 0049110 143.9353 216.5151 14.18128280 81041
1 54277U 22151U   24162.56359252  .00000637  00000+0  32808-3 0  9997
2 54277  98.8714 177.9832 0049140 142.1533 218.3113 14.18128884 81135
1 54277U 22151U   24162.84581337  .00000650  00000+0  33442-3 0  9999
2 54277  98.8713 178.2653 0049152 141.3632 219.1077 14.18129371 81177
1 54277U 22151U   24163.55136534  .00000626  00000+0  32255-3 0  9997
2 54277  98.8713 178.9706 0049182 139.3841 221.1019 14.18130277 81272
1 54277U 22151U   24163.97469653  .00000556  00000+0  28911-3 0  9990
2 54277  98.8713 179.3937 0049193 138.1975 222.2974 14.18130411 81339
1 54277U 22151U   24164.32747238  .00000547  00000+0  28453-3 0  9999
2 54277  98.8714 179.7464 0049204 137.1915 223.3108 14.18130779 81388
1 54277U 22151U   24165.03302351  .00000495  00000+0  25962-3 0  9995
2 54277  98.8713 180.4516 0049230 135.2057 225.3109 14.18131388 81480
1 54277U 22151U   24165.59746419  .00000462  00000+0  24382-3 0  9992
2 54277  98.8713 181.0158 0049255 133.6097 226.9181 14.18131850 81562
